ELEKTRO-L 3             
1 44903U 19095A   26166.48797758 -.00000094  00000+0  00000+0 0  9992
2 44903   0.2519  81.5030 0000950 352.2937  81.6023  1.00271449 23699
GONETS-M 14             
1 44905U 19096A   26166.51872111  .00000042  00000+0  22995-3 0  9999
2 44905  82.5240  85.6752 0013433 151.4476 208.7342 12.42869761293477
GONETS-M 15             
1 44906U 19096B   26166.46762461 -.00000008  00000+0 -13150-3 0  9997
2 44906  82.5260  86.1680 0014824 175.1940 184.9285 12.42871160293433
GONETS-M 16             
1 44907U 19096C   26166.49386898  .00000023  00000+0  96997-4 0  9993
2 44907  82.5206  85.1050 0009751 218.6844 141.3538 12.42891535293428
RS-44 & BREEZE-KM R/B   
1 44909U 19096E   26166.51974616  .00000010  00000+0 -10932-4 0  9991
2 44909  82.5218 340.8131 0218107 148.0537 213.4006 12.79748866302134
JILIN-1 KUANFU 01       
1 45016U 20003A   26166.49718345  .00002803  00000+0  17292-3 0  9999
2 45016  97.5032 240.4853 0008474 314.3493  45.7041 15.10715555355076
XINGYUN-2 01            
1 45602U 20028A   26166.55350595  .00001870  00000+0  11318-3 0  9999
2 45602  97.4858 158.9861 0008129 198.4040 161.6898 15.11802054334594
XINGYUN-2 02            
1 45603U 20028B   26166.53183262  .00002352  00000+0  14249-3 0  9995
2 45603  97.5064 172.5520 0009045 280.1877  79.8332 15.11535067334583
HAIYANG-1D              
1 45721U 20036A   26166.50800334  .00000059  00000+0  36267-4 0  9995
2 45721  98.4556 108.2243 0003291 131.3700 228.7768 14.34172563314732
M2 PATHFINDER           
1 45727U 20037E   26166.51733911  .00001776  00000+0  13068-3 0  9999
2 45727  97.8148 357.7305 0012395 151.1076 209.0839 15.04671269325243
GAOFEN DUOMO (GFDM)     
1 45856U 20042A   26166.51364370  .00000462  00000+0  72695-4 0  9990
2 45856  97.7753 226.4606 0012466  79.3283 280.9331 14.76877609320764
ZIYUAN 3-03 (ZY 3-03)   
1 45939U 20051A   26166.53985059  .00003169  00000+0  14377-3 0  9996
2 45939  97.2841 234.3198 0003353 328.7162  31.3874 15.21519965327097
NEMO-HD                 
1 46277U 20061F   26166.51013551  .00009196  00000+0  19979-3 0  9999
2 46277  97.1923 228.4798 0002372  83.0920 277.0599 15.44564194321722
NAPA-1                  
1 46320U 20061BA  26166.50330632  .00060963  00000+0  55415-3 0  9993
2 46320  97.2471 240.6275 0001335 170.9407 189.1879 15.67788039321477
JILIN-1 GAOFEN 3E       
1 46457U 20065D   26166.49397919  .00059131  00000+0  63625-3 0  9994
2 46457  97.2247 219.0640 0012751 162.1787 197.9922 15.63449124319493
JILIN-1 GAOFEN 3F       
1 46458U 20065E   26166.51600675  .00045418  00000+0  54289-3 0  9993
2 46458  97.2203 216.4299 0014366 151.4821 208.7226 15.60756245319446
JILIN-1 GAOFEN 3G       
1 46459U 20065F   26166.49180605  .00083923  00000+0  66665-3 0  9991
2 46459  97.2269 223.1808 0008661  70.3839 289.8359 15.70947857319673
JILIN-1 GAOFEN 3H       
1 46460U 20065G   26166.52354440  .00065244  00000+0  59780-3 0  9993
2 46460  97.2216 219.5520 0003697   0.0561   0.0700 15.67568866319626
HAIYANG-2C              
1 46469U 20066A   26166.50300613  .00000050  00000+0  11910-3 0  9991
2 46469  65.9968 219.4775 0008987 238.1493 121.8701 13.83375452289269
HJ-2A                   
1 46478U 20067A   26166.47099453  .00000722  00000+0  11082-3 0  9991
2 46478  97.8834 244.8838 0002360 276.9377  83.1564 14.76515333308005
HJ-2B                   
1 46479U 20067B   26166.50792966  .00000498  00000+0  78590-4 0  9993
2 46479  97.8898 245.9401 0001235  96.9334 263.2016 14.76555890308013
GONETS-M 17             
1 46486U 20068A   26166.51896958 -.00000025  00000+0 -25386-3 0  9991
2 46486  82.4984 348.5410 0023159  40.9629 319.3185 12.42873122258951
GONETS-M 18             
1 46487U 20068B   26166.56312406  .00000057  00000+0  33709-3 0  9999
2 46487  82.4938 347.6320 0020415  37.5983 322.6520 12.42873650258943
GONETS-M 19             
1 46488U 20068C   26166.53856405  .00000029  00000+0  13957-3 0  9991
2 46488  82.4963 348.0973 0014318  52.9516 307.2871 12.42892343259049
DEKART                  
1 46493U 20068H   26166.51447412  .00009729  00000+0  26832-3 0  9991
2 46493  97.8733 175.6646 0007031 294.0393  66.0114 15.37317029315512
NORBI                   
1 46494U 20068J   26166.54144552  .00018364  00000+0  34807-3 0  9990
2 46494  97.8617 182.3611 0004664 253.3509 106.7228 15.48394518315953
SALSAT                  
1 46495U 20068K   26166.51026536  .00006457  00000+0  22659-3 0  9991
2 46495  97.8844 169.4726 0008149 315.3702  44.6880 15.29779241315105
