OBJECT_NAME,OBJECT_ID,EPOCH,MEAN_MOTION,ECCENTRICITY,INCLINATION,RA_OF_ASC_NODE,ARG_OF_PERICENTER,MEAN_ANOMALY,EPHEMERIS_TYPE,CLASSIFICATION_TYPE,NORAD_CAT_ID,ELEMENT_SET_NO,REV_AT_EPOCH,BSTAR,MEAN_MOTION_DOT,MEAN_MOTION_DDOT
ELEKTRO-L 3,2019-095A,2026-06-15T11:42:41.262912,1.00271449,.000095,0.2519,81.5030,352.2937,81.6023,0,U,44903,999,2369,0,-.94E-6,0
GONETS-M 14,2019-096A,2026-06-15T12:26:57.503904,12.42869761,.0013433,82.5240,85.6752,151.4476,208.7342,0,U,44905,999,29347,.22995E-3,.42E-6,0
GONETS-M 15,2019-096B,2026-06-15T11:13:22.766304,12.42871160,.0014824,82.5260,86.1680,175.1940,184.9285,0,U,44906,999,29343,-.1315E-3,-.8E-7,0
GONETS-M 16,2019-096C,2026-06-15T11:51:10.279872,12.42891535,.0009751,82.5206,85.1050,218.6844,141.3538,0,U,44907,999,29342,.96997E-4,.23E-6,0
RS-44 & BREEZE-KM R/B,2019-096E,2026-06-15T12:28:26.068224,12.79748866,.0218107,82.5218,340.8131,148.0537,213.4006,0,U,44909,999,30213,-.10932E-4,.1E-6,0
JILIN-1 KUANFU 01,2020-003A,2026-06-15T11:55:56.650080,15.10715555,.0008474,97.5032,240.4853,314.3493,45.7041,0,U,45016,999,35507,.17292E-3,.2803E-4,0
XINGYUN-2 01,2020-028A,2026-06-15T13:17:02.914080,15.11802054,.0008129,97.4858,158.9861,198.4040,161.6898,0,U,45602,999,33459,.11318E-3,.187E-4,0
XINGYUN-2 02,2020-028B,2026-06-15T12:45:50.338368,15.11535067,.0009045,97.5064,172.5520,280.1877,79.8332,0,U,45603,999,33458,.14249E-3,.2352E-4,0
HAIYANG-1D,2020-036A,2026-06-15T12:11:31.488576,14.34172563,.0003291,98.4556,108.2243,131.3700,228.7768,0,U,45721,999,31473,.36267E-4,.59E-6,0
M2 PATHFINDER,2020-037E,2026-06-15T12:24:58.099104,15.04671269,.0012395,97.8148,357.7305,151.1076,209.0839,0,U,45727,999,32524,.13068E-3,.1776E-4,0
GAOFEN DUOMO (GFDM),2020-042A,2026-06-15T12:19:38.815680,14.76877609,.0012466,97.7753,226.4606,79.3283,280.9331,0,U,45856,999,32076,.72695E-4,.462E-5,0
ZIYUAN 3-03 (ZY 3-03),2020-051A,2026-06-15T12:57:23.090976,15.21519965,.0003353,97.2841,234.3198,328.7162,31.3874,0,U,45939,999,32709,.14377E-3,.3169E-4,0
NEMO-HD,2020-061F,2026-06-15T12:14:35.708064,15.44564194,.0002372,97.1923,228.4798,83.0920,277.0599,0,U,46277,999,32172,.19979E-3,.9196E-4,0
NAPA-1,2020-061BA,2026-06-15T12:04:45.666048,15.67788039,.0001335,97.2471,240.6275,170.9407,189.1879,0,U,46320,999,32147,.55415E-3,.60963E-3,0
JILIN-1 GAOFEN 3E,2020-065D,2026-06-15T11:51:19.802016,15.63449124,.0012751,97.2247,219.0640,162.1787,197.9922,0,U,46457,999,31949,.63625E-3,.59131E-3,0
JILIN-1 GAOFEN 3F,2020-065E,2026-06-15T12:23:02.983200,15.60756245,.0014366,97.2203,216.4299,151.4821,208.7226,0,U,46458,999,31944,.54289E-3,.45418E-3,0
JILIN-1 GAOFEN 3G,2020-065F,2026-06-15T11:48:12.042720,15.70947857,.0008661,97.2269,223.1808,70.3839,289.8359,0,U,46459,999,31967,.66665E-3,.83923E-3,0
JILIN-1 GAOFEN 3H,2020-065G,2026-06-15T12:33:54.236160,15.67568866,.0003697,97.2216,219.5520,0.0561,0.0700,0,U,46460,999,31962,.5978E-3,.65244E-3,0
HAIYANG-2C,2020-066A,2026-06-15T12:04:19.729632,13.83375452,.0008987,65.9968,219.4775,238.1493,121.8701,0,U,46469,999,28926,.1191E-3,.5E-6,0
HJ-2A,2020-067A,2026-06-15T11:18:13.927392,14.76515333,.000236,97.8834,244.8838,276.9377,83.1564,0,U,46478,999,30800,.11082E-3,.722E-5,0
HJ-2B,2020-067B,2026-06-15T12:11:25.122624,14.76555890,.0001235,97.8898,245.9401,96.9334,263.2016,0,U,46479,999,30801,.7859E-4,.498E-5,0
GONETS-M 17,2020-068A,2026-06-15T12:27:18.971712,12.42873122,.0023159,82.4984,348.5410,40.9629,319.3185,0,U,46486,999,25895,-.25386E-3,-.25E-6,0
GONETS-M 18,2020-068B,2026-06-15T13:30:53.918784,12.42873650,.0020415,82.4938,347.6320,37.5983,322.6520,0,U,46487,999,25894,.33709E-3,.57E-6,0
GONETS-M 19,2020-068C,2026-06-15T12:55:31.933920,12.42892343,.0014318,82.4963,348.0973,52.9516,307.2871,0,U,46488,999,25904,.13957E-3,.29E-6,0
DEKART,2020-068H,2026-06-15T12:20:50.563968,15.37317029,.0007031,97.8733,175.6646,294.0393,66.0114,0,U,46493,999,31551,.26832E-3,.9729E-4,0
NORBI,2020-068J,2026-06-15T12:59:40.892928,15.48394518,.0004664,97.8617,182.3611,253.3509,106.7228,0,U,46494,999,31595,.34807E-3,.18364E-3,0
SALSAT,2020-068K,2026-06-15T12:14:46.927104,15.29779241,.0008149,97.8844,169.4726,315.3702,44.6880,0,U,46495,999,31510,.22659E-3,.6457E-4,0
